TWILIGHT-1 OBJECT AN    
1 67399U 26004AN  26040.94848254  .00012129  00000+0  59596-3 0  9993
2 67399  97.4555  41.8800 0009674  72.4717 287.7573 15.18155313  4451
CONNECTA IOT-13         
1 67400U 26004AP  26040.94354917  .00009995  00000+0  49263-3 0  9991
2 67400  97.4559  41.8879 0011163  72.0344 288.2106 15.18087434  4458
CONNECTA IOT-14         
1 67401U 26004AQ  26040.94063759  .00012940  00000+0  62819-3 0  9999
2 67401  97.4510  41.8668 0011774  68.9240 291.3252 15.18541016  4457
CONNECTA IOT-15         
1 67402U 26004AR  26040.90607681  .00009740  00000+0  50043-3 0  9994
2 67402  97.4566  41.7851 0004997  60.2858 299.8872 15.16676150  4436
SHIJIAN-29B (SJ-29B)    
1 67403U 25315C   26040.92092892 -.00000061  00000+0  00000+0 0  9995
2 67403   3.0749  98.4388 0002640 314.4454 131.7567  1.00272546   414
STARLINK-36484          
1 67404U 26005A   26040.93612995  .00047201  00000+0  11289-2 0  9996
2 67404  43.0002  37.1740 0000881 282.8468  77.2290 15.40734865  4429
STARLINK-36452          
1 67405U 26005B   26040.91670139  .00073126  00000+0  17438-2 0  9996
2 67405  43.0006  36.8363 0000974 260.4511 178.3289 15.40653589  5677
STARLINK-36409          
1 67406U 26005C   26040.91670139  .00075352  00000+0  17973-2 0  9994
2 67406  43.0009  37.0771 0001538 264.7592  74.5291 15.40633904  5725
STARLINK-36510          
1 67407U 26005D   26040.37771306  .00141824  00000+0  23763-2 0  9995
2 67407  43.0007  39.8557 0001034 262.1116  97.9627 15.50620168  4349
STARLINK-36509          
1 67408U 26005E   26040.91670139  .00090538  00000+0  21552-2 0  9997
2 67408  43.0010  36.9558 0001379 252.7549 136.3147 15.40613466  5720
STARLINK-36507          
1 67409U 26005F   26040.91670139 -.02011943  00000+0 -47319-1 0  9993
2 67409  43.0008  36.7296 0001271 270.5495 211.6941 15.44656267  5723
STARLINK-36508          
1 67410U 26005G   26040.41078072  .00030605  00000+0  73661-3 0  9991
2 67410  43.0017  40.1110 0001690 249.8302 110.2372 15.40714912  4347
