CCSDS_OMM_VERS = 2.0
CREATION_DATE  = 
ORIGINATOR     = 

OBJECT_NAME    = TWILIGHT-1 OBJECT AN
OBJECT_ID      = 2026-004AN
CENTER_NAME    = EARTH
REF_FRAME      = TEME
TIME_SYSTEM    = UTC
MEAN_ELEMENT_THEORY = SGP/SGP4

EPOCH          = 2026-02-09T22:45:48.891456
MEAN_MOTION    = 15.18155313
ECCENTRICITY   = .00096745
INCLINATION    = 97.4555
RA_OF_ASC_NODE = 41.8800
ARG_OF_PERICENTER = 72.4717
MEAN_ANOMALY   = 287.7573

EPHEMERIS_TYPE = 0
CLASSIFICATION_TYPE = U
NORAD_CAT_ID   = 67399
ELEMENT_SET_NO = 999
REV_AT_EPOCH   = 445
BSTAR          = .59595625E-3
MEAN_MOTION_DOT = .12129E-3
MEAN_MOTION_DDOT = 0

CCSDS_OMM_VERS = 2.0
CREATION_DATE  = 
ORIGINATOR     = 

OBJECT_NAME    = CONNECTA IOT-13
OBJECT_ID      = 2026-004AP
CENTER_NAME    = EARTH
REF_FRAME      = TEME
TIME_SYSTEM    = UTC
MEAN_ELEMENT_THEORY = SGP/SGP4

EPOCH          = 2026-02-09T22:38:42.648288
MEAN_MOTION    = 15.18087434
ECCENTRICITY   = .0011163
INCLINATION    = 97.4559
RA_OF_ASC_NODE = 41.8879
ARG_OF_PERICENTER = 72.0344
MEAN_ANOMALY   = 288.2106

EPHEMERIS_TYPE = 0
CLASSIFICATION_TYPE = U
NORAD_CAT_ID   = 67400
ELEMENT_SET_NO = 999
REV_AT_EPOCH   = 445
BSTAR          = .49262634E-3
MEAN_MOTION_DOT = .9995E-4
MEAN_MOTION_DDOT = 0

CCSDS_OMM_VERS = 2.0
CREATION_DATE  = 
ORIGINATOR     = 

OBJECT_NAME    = CONNECTA IOT-14
OBJECT_ID      = 2026-004AQ
CENTER_NAME    = EARTH
REF_FRAME      = TEME
TIME_SYSTEM    = UTC
MEAN_ELEMENT_THEORY = SGP/SGP4

EPOCH          = 2026-02-09T22:34:31.087776
MEAN_MOTION    = 15.18541016
ECCENTRICITY   = .00117747
INCLINATION    = 97.4510
RA_OF_ASC_NODE = 41.8668
ARG_OF_PERICENTER = 68.9240
MEAN_ANOMALY   = 291.3252

EPHEMERIS_TYPE = 0
CLASSIFICATION_TYPE = U
NORAD_CAT_ID   = 67401
ELEMENT_SET_NO = 999
REV_AT_EPOCH   = 445
BSTAR          = .62819207E-3
MEAN_MOTION_DOT = .1294E-3
MEAN_MOTION_DDOT = 0

CCSDS_OMM_VERS = 2.0
CREATION_DATE  = 
ORIGINATOR     = 

OBJECT_NAME    = CONNECTA IOT-15
OBJECT_ID      = 2026-004AR
CENTER_NAME    = EARTH
REF_FRAME      = TEME
TIME_SYSTEM    = UTC
MEAN_ELEMENT_THEORY = SGP/SGP4

EPOCH          = 2026-02-09T21:44:45.036384
MEAN_MOTION    = 15.16676150
ECCENTRICITY   = .00049974
INCLINATION    = 97.4566
RA_OF_ASC_NODE = 41.7851
ARG_OF_PERICENTER = 60.2858
MEAN_ANOMALY   = 299.8872

EPHEMERIS_TYPE = 0
CLASSIFICATION_TYPE = U
NORAD_CAT_ID   = 67402
ELEMENT_SET_NO = 999
REV_AT_EPOCH   = 443
BSTAR          = .50043199E-3
MEAN_MOTION_DOT = .974E-4
MEAN_MOTION_DDOT = 0

CCSDS_OMM_VERS = 2.0
CREATION_DATE  = 
ORIGINATOR     = 

OBJECT_NAME    = SHIJIAN-29B (SJ-29B)
OBJECT_ID      = 2025-315C
CENTER_NAME    = EARTH
REF_FRAME      = TEME
TIME_SYSTEM    = UTC
MEAN_ELEMENT_THEORY = SGP/SGP4

EPOCH          = 2026-02-09T22:06:08.258688
MEAN_MOTION    = 1.00272546
ECCENTRICITY   = .00026408
INCLINATION    = 3.0749
RA_OF_ASC_NODE = 98.4388
ARG_OF_PERICENTER = 314.4454
MEAN_ANOMALY   = 131.7567

EPHEMERIS_TYPE = 0
CLASSIFICATION_TYPE = U
NORAD_CAT_ID   = 67403
ELEMENT_SET_NO = 999
REV_AT_EPOCH   = 41
BSTAR          = 0
MEAN_MOTION_DOT = -.61E-6
MEAN_MOTION_DDOT = 0

CCSDS_OMM_VERS = 2.0
CREATION_DATE  = 
ORIGINATOR     = 

OBJECT_NAME    = STARLINK-36484
OBJECT_ID      = 2026-005A
CENTER_NAME    = EARTH
REF_FRAME      = TEME
TIME_SYSTEM    = UTC
MEAN_ELEMENT_THEORY = SGP/SGP4

EPOCH          = 2026-02-09T22:28:01.627680
MEAN_MOTION    = 15.40734865
ECCENTRICITY   = .00008818
INCLINATION    = 43.0002
RA_OF_ASC_NODE = 37.1740
ARG_OF_PERICENTER = 282.8468
MEAN_ANOMALY   = 77.2290

EPHEMERIS_TYPE = 0
CLASSIFICATION_TYPE = U
NORAD_CAT_ID   = 67404
ELEMENT_SET_NO = 999
REV_AT_EPOCH   = 442
BSTAR          = .11289219E-2
MEAN_MOTION_DOT = .47201E-3
MEAN_MOTION_DDOT = 0

CCSDS_OMM_VERS = 2.0
CREATION_DATE  = 
ORIGINATOR     = 

OBJECT_NAME    = STARLINK-36452
OBJECT_ID      = 2026-005B
CENTER_NAME    = EARTH
REF_FRAME      = TEME
TIME_SYSTEM    = UTC
MEAN_ELEMENT_THEORY = SGP/SGP4

EPOCH          = 2026-02-09T22:00:03.000096
MEAN_MOTION    = 15.40653589
ECCENTRICITY   = .00009742
INCLINATION    = 43.0006
RA_OF_ASC_NODE = 36.8363
ARG_OF_PERICENTER = 260.4511
MEAN_ANOMALY   = 178.3289

EPHEMERIS_TYPE = 0
CLASSIFICATION_TYPE = U
NORAD_CAT_ID   = 67405
ELEMENT_SET_NO = 999
REV_AT_EPOCH   = 567
BSTAR          = .17437734E-2
MEAN_MOTION_DOT = .73126E-3
MEAN_MOTION_DDOT = 0

CCSDS_OMM_VERS = 2.0
CREATION_DATE  = 
ORIGINATOR     = 

OBJECT_NAME    = STARLINK-36409
OBJECT_ID      = 2026-005C
CENTER_NAME    = EARTH
REF_FRAME      = TEME
TIME_SYSTEM    = UTC
MEAN_ELEMENT_THEORY = SGP/SGP4

EPOCH          = 2026-02-09T22:00:03.000096
MEAN_MOTION    = 15.40633904
ECCENTRICITY   = .00015386
INCLINATION    = 43.0009
RA_OF_ASC_NODE = 37.0771
ARG_OF_PERICENTER = 264.7592
MEAN_ANOMALY   = 74.5291

EPHEMERIS_TYPE = 0
CLASSIFICATION_TYPE = U
NORAD_CAT_ID   = 67406
ELEMENT_SET_NO = 999
REV_AT_EPOCH   = 572
BSTAR          = .17972774E-2
MEAN_MOTION_DOT = .75352E-3
MEAN_MOTION_DDOT = 0

CCSDS_OMM_VERS = 2.0
CREATION_DATE  = 
ORIGINATOR     = 

OBJECT_NAME    = STARLINK-36510
OBJECT_ID      = 2026-005D
CENTER_NAME    = EARTH
REF_FRAME      = TEME
TIME_SYSTEM    = UTC
MEAN_ELEMENT_THEORY = SGP/SGP4

EPOCH          = 2026-02-09T09:03:54.408384
MEAN_MOTION    = 15.50620168
ECCENTRICITY   = .00010346
INCLINATION    = 43.0007
RA_OF_ASC_NODE = 39.8557
ARG_OF_PERICENTER = 262.1116
MEAN_ANOMALY   = 97.9627

EPHEMERIS_TYPE = 0
CLASSIFICATION_TYPE = U
NORAD_CAT_ID   = 67407
ELEMENT_SET_NO = 999
REV_AT_EPOCH   = 434
BSTAR          = .23762762E-2
MEAN_MOTION_DOT = .141824E-2
MEAN_MOTION_DDOT = 0

CCSDS_OMM_VERS = 2.0
CREATION_DATE  = 
ORIGINATOR     = 

OBJECT_NAME    = STARLINK-36509
OBJECT_ID      = 2026-005E
CENTER_NAME    = EARTH
REF_FRAME      = TEME
TIME_SYSTEM    = UTC
MEAN_ELEMENT_THEORY = SGP/SGP4

EPOCH          = 2026-02-09T22:00:03.000096
MEAN_MOTION    = 15.40613466
ECCENTRICITY   = .00013795
INCLINATION    = 43.0010
RA_OF_ASC_NODE = 36.9558
ARG_OF_PERICENTER = 252.7549
MEAN_ANOMALY   = 136.3147

EPHEMERIS_TYPE = 0
CLASSIFICATION_TYPE = U
NORAD_CAT_ID   = 67408
ELEMENT_SET_NO = 999
REV_AT_EPOCH   = 572
BSTAR          = .21551923E-2
MEAN_MOTION_DOT = .90538E-3
MEAN_MOTION_DDOT = 0

CCSDS_OMM_VERS = 2.0
CREATION_DATE  = 
ORIGINATOR     = 

OBJECT_NAME    = STARLINK-36507
OBJECT_ID      = 2026-005F
CENTER_NAME    = EARTH
REF_FRAME      = TEME
TIME_SYSTEM    = UTC
MEAN_ELEMENT_THEORY = SGP/SGP4

EPOCH          = 2026-02-09T22:00:03.000096
MEAN_MOTION    = 15.44656267
ECCENTRICITY   = .00012711
INCLINATION    = 43.0008
RA_OF_ASC_NODE = 36.7296
ARG_OF_PERICENTER = 270.5495
MEAN_ANOMALY   = 211.6941

EPHEMERIS_TYPE = 0
CLASSIFICATION_TYPE = U
NORAD_CAT_ID   = 67409
ELEMENT_SET_NO = 999
REV_AT_EPOCH   = 572
BSTAR          = -.47319269E-1
MEAN_MOTION_DOT = -.2011943E-1
MEAN_MOTION_DDOT = 0

CCSDS_OMM_VERS = 2.0
CREATION_DATE  = 
ORIGINATOR     = 

OBJECT_NAME    = STARLINK-36508
OBJECT_ID      = 2026-005G
CENTER_NAME    = EARTH
REF_FRAME      = TEME
TIME_SYSTEM    = UTC
MEAN_ELEMENT_THEORY = SGP/SGP4

EPOCH          = 2026-02-09T09:51:31.454208
MEAN_MOTION    = 15.40714912
ECCENTRICITY   = .00016902
INCLINATION    = 43.0017
RA_OF_ASC_NODE = 40.1110
ARG_OF_PERICENTER = 249.8302
MEAN_ANOMALY   = 110.2372

EPHEMERIS_TYPE = 0
CLASSIFICATION_TYPE = U
NORAD_CAT_ID   = 67410
ELEMENT_SET_NO = 999
REV_AT_EPOCH   = 434
BSTAR          = .73661098E-3
MEAN_MOTION_DOT = .30605E-3
MEAN_MOTION_DDOT = 0

